TDRS 3                  
1 19548U 88091B   22198.29841230 -.00000313  00000+0  00000+0 0  9990
2 19548  13.6932 351.0843 0032361 332.4254  29.8985  1.00263841111026
HST                     
1 20580U 90037B   22198.55405115  .00002493  00000+0  13605-3 0  9997
2 20580  28.4710 329.3382 0002613   6.4681  75.0314 15.10678240570776
TDRS 5                  
1 21639U 91054B   22198.54992538  .00000070  00000+0  00000+0 0  9992
2 21639  14.2349   4.4128 0023721   4.8056 316.4459  1.00275846113362
TDRS 6                  
1 22314U 93003B   22198.34483677 -.00000310  00000+0  00000+0 0  9994
2 22314  14.1325   7.6551 0012387 120.6036 245.1573  1.00269181108063
TDRS 7                  
1 23613U 95035B   22198.44273448 -.00000213  00000+0  00000+0 0  9990
2 23613  13.9658 358.3455 0028628  55.9332 124.9762  1.00267888 98902
ISS (ZARYA)             
1 25544U 98067A   22198.44227037  .00006772  00000+0  12659-3 0  9998
2 25544  51.6406 186.7371 0004888  20.5865  78.3745 15.49986171349877
LANDSAT 7               
1 25682U 99020A   22198.52201759  .00000274  00000+0  66658-4 0  9993
2 25682  97.9771 245.4558 0001547  71.7835 288.3544 14.59771388236958
TERRA                   
1 25994U 99068A   22198.49288417  .00000281  00000+0  72266-4 0  9993
2 25994  98.1360 269.7231 0001401 100.0250  15.6752 14.57159478200999
TDRS 8                  
1 26388U 00034A   22198.51540111 -.00000250  00000+0  00000+0 0  9990
2 26388  10.4128  42.3463 0021402 352.2461 175.5211  1.00276668 80836
TIMED                   
1 26998U 01055B   22198.48315195  .00000627  00000+0  71121-4 0  9993
2 26998  74.0708 219.8159 0000621 285.0671  75.0442 14.88716802117472
TDRS 9                  
1 27389U 02011A   22198.44636657 -.00000302  00000+0  00000+0 0  9990
2 27389   9.0809  60.5486 0022716 304.1541  28.8267  1.00265803 76092
AQUA                    
1 27424U 02022A   22198.58764373  .00000541  00000+0  12963-3 0  9993
2 27424  98.2481 140.1946 0001794  96.8403  76.1667 14.57330331 74610
TDRS 10                 
1 27566U 02055A   22198.39424376  .00000074  00000+0  00000+0 0  9997
2 27566   8.2551  49.8053 0007770 351.0447 225.0926  1.00273889 71881
SORCE                   
1 27651U 03004A   22198.29372673  .00001235  00000+0  13934-3 0  9992
2 27651  39.9966  50.8649 0024063 320.1598  39.7425 14.89981217 57529
AURA                    
1 28376U 04026A   22198.57341485  .00000537  00000+0  12918-3 0  9995
2 28376  98.2099 141.4770 0001566  83.6031 276.5346 14.57127872957613
SWIFT                   
1 28485U 04047A   22198.09860730  .00003756  00000+0  21651-3 0  9995
2 28485  20.5571 102.2557 0010399 315.2774  44.6822 15.06566442968022
THEMIS A                
1 30580U 07004A   22197.68914695 -.00000408  00000+0  15296-1 0  9992
2 30580  14.2007 342.6095 8381419 171.2490 232.7125  0.87835776 28697
THEMIS D                
1 30797U 07004D   22198.53728838 -.00000330  00000+0  00000+0 0  9998
2 30797  10.0168 332.0721 8341515 185.0472 151.9971  0.87838048 28498
THEMIS E                
1 30798U 07004E   22198.53737559 -.00000334  00000+0  00000+0 0  9993
2 30798  10.8596 345.1879 8329023 174.0924 141.3615  0.87841425 53333
AIM                     
1 31304U 07015A   22198.32428506  .00008400  00000+0  41551-3 0  9996
2 31304  97.8542 118.6481 0003095 278.4794  81.6087 15.18085262835728
FGRST (GLAST)           
1 33053U 08029A   22198.52443613  .00001945  00000+0  92555-4 0  9991
2 33053  25.5831 322.1138 0012103 167.1338 192.9508 15.12265136778251
WISE                    
1 36119U 09071A   22198.40465016  .00006214  00000+0  19152-3 0  9998
2 36119  97.2370 232.2340 0002620 150.8294 209.3096 15.33955109700091
TDRS 11                 
1 39070U 13004A   22198.55327097  .00000069  00000+0  00000+0 0  9990
2 39070   2.9025 346.8903 0007530  74.4862 258.8904  1.00266074 32342
TDRS 12                 
1 39504U 14004A   22198.41762078 -.00000279  00000+0  00000+0 0  9994
2 39504   3.8335 347.8022 0004741 134.9047 281.9523  1.00269036 29935
GPM-CORE                
1 39574U 14009C   22198.52245630  .00016953  00000+0  24362-3 0  9994
2 39574  65.0020  85.9230 0012067 282.1044  77.8750 15.56153308476285
MMS 1                   
1 40482U 15011A   22193.39198380 -.00001652  00000+0  00000+0 0  9997
2 40482  31.9524 103.5899 8704946  54.1293 130.3687  0.28478267 13377
MMS 2                   
1 40483U 15011B   22197.55119404 -.00001572  00000+0  00000+0 0  9991
2 40483  31.8259 103.1713 8724078  54.7086 195.3497  0.28310153 13354
MMS 3                   
1 40484U 15011C   22195.90247684 -.00001696  00000+0  00000+0 0  9998
2 40484  31.9905 103.6349 8719322  54.1160  27.5704  0.28429769 13358
MMS 4                   
1 40485U 15011D   22193.39229632 -.00001653  00000+0  00000+0 0  9996
2 40485  31.9623 103.6214 8707556  54.0974 130.3889  0.28478373 13324
TDRS 13                 
1 42915U 17047A   22198.27995125 -.00000109  00000+0  00000+0 0  9991
2 42915   4.4342 333.7549 0019692 118.8539 291.7421  1.00271699 18006
JPSS-1                  
1 43013U 17073A   22198.53165928  .00000039  00000+0  39116-4 0  9995
2 43013  98.7168 136.6172 0001142  63.0624 297.0669 14.19561782241490
